NORAD_CAT_ID,OBJECT_NAME,OBJECT_TYPE,EPOCH,MEAN_MOTION,ECCENTRICITY,INCLINATION,RA_OF_ASC_NODE,ARG_OF_PERICENTER,MEAN_ANOMALY,BSTAR,MEAN_MOTION_DOT,MEAN_MOTION_DDOT,TLE_LINE0,TLE_LINE1,TLE_LINE2,SEMIMAJOR_AXIS,PERIOD,APOGEE,PERIGEE,DECAYED
52101.0,STARLINK-3703,PAYLOAD,2023-06-20 12:26:33,15.08843962,9.97e-05,53.2165,227.6521,95.9227,264.1878,0.00010995,1.463e-05,0.0,0 STARLINK-3703,1 52101U 22029P   23171.51844896  .00001463  00000-0  10995-3 0  9994,2 52101  53.2165 227.6521 0000997  95.9227 264.1878 15.08843962 70714,6917.868,95.437,540.423,539.044,0.0
52101.0,STARLINK-3703,PAYLOAD,2023-06-20 14:01:57,15.08844436,9.94e-05,53.2164,227.3546,95.7529,264.3577,0.00011063,1.474e-05,0.0,0 STARLINK-3703,1 52101U 22029P   23171.58468843  .00001474  00000-0  11063-3 0  9994,2 52101  53.2164 227.3546 0000994  95.7529 264.3577 15.08844436 70723,6917.867,95.437,540.419,539.044,0.0
52101.0,STARLINK-3703,PAYLOAD,2023-06-21 10:41:58,15.08840613,9.33e-05,53.2168,223.4886,84.6971,275.4128,7.4098e-05,8.92e-06,0.0,0 STARLINK-3703,1 52101U 22029P   23172.44581261  .00000892  00000-0  74098-4 0  9991,2 52101  53.2168 223.4886 0000933  84.6971 275.4128 15.08840613 70854,6917.879,95.438,540.389,539.098,0.0
52101.0,STARLINK-3703,PAYLOAD,2023-06-21 20:14:17,15.08839504,9.33e-05,53.2169,221.7046,82.6335,277.4763,7.7876e-05,9.52e-06,0.0,0 STARLINK-3703,1 52101U 22029P   23172.84325334  .00000952  00000-0  77876-4 0  9996,2 52101  53.2169 221.7046 0000933  82.6335 277.4763 15.08839504 70917,6917.882,95.438,540.392,539.101,0.0
52101.0,STARLINK-3703,PAYLOAD,2023-06-22 08:57:22,15.08836319,9.93e-05,53.2171,219.3258,87.6641,272.4465,2.6038e-05,1.27e-06,0.0,0 STARLINK-3703,1 52101U 22029P   23173.37317779  .00000127  00000-0  26038-4 0  9997,2 52101  53.2171 219.3258 0000993  87.6641 272.4465 15.08836319 70992,6917.892,95.438,540.444,539.07,0.0
52101.0,STARLINK-3703,PAYLOAD,2023-06-23 08:48:08,15.08846892,0.0001001,53.2172,214.8651,79.2848,280.8257,0.00011889,1.605e-05,0.0,0 STARLINK-3703,1 52101U 22029P   23174.36676955  .00001605  00000-0  11889-3 0  9990,2 52101  53.2172 214.8651 0001001  79.2848 280.8257 15.08846892 71144,6917.859,95.437,540.417,539.032,0.0
52101.0,STARLINK-3703,PAYLOAD,2023-06-24 02:17:23,15.08836665,9.89e-05,53.2168,211.5941,80.4266,279.6838,9.45e-05,1.216e-05,0.0,0 STARLINK-3703,1 52101U 22029P   23175.09541626  .00001216  00000-0  94500-4 0  9997,2 52101  53.2168 211.5941 0000989  80.4266 279.6838 15.08836665 71257,6917.891,95.438,540.44,539.071,0.0
52101.0,STARLINK-3703,PAYLOAD,2023-06-25 08:29:43,15.08846027,0.0001082,53.2167,205.9437,82.2304,277.8811,5.3779e-05,5.68e-06,0.0,0 STARLINK-3703,1 52101U 22029P   23176.35397130  .00000568  00000-0  53779-4 0  9998,2 52101  53.2167 205.9437 0001082  82.2304 277.8811 15.08846027 71446,6917.862,95.437,540.475,538.978,0.0
52101.0,STARLINK-3703,PAYLOAD,2023-06-26 01:58:57,15.08837044,0.0001113,53.216,202.6717,85.909,274.203,7.2423e-05,8.65e-06,0.0,0 STARLINK-3703,1 52101U 22029P   23177.08261557  .00000865  00000-0  72423-4 0  9999,2 52101  53.2160 202.6717 0001113  85.9090 274.2030 15.08837044 71556,6917.889,95.438,540.524,538.984,0.0
52101.0,STARLINK-3703,PAYLOAD,2023-06-27 09:46:40,15.08838602,0.0001089,53.2161,196.7248,83.3285,276.7831,1.2913e-05,-8.2e-07,0.0,0 STARLINK-3703,1 52101U 22029P   23178.40741788 -.00000082  00000-0  12913-4 0  9995,2 52101  53.2161 196.7248 0001089  83.3285 276.7831 15.08838602 71758,6917.885,95.438,540.503,538.996,0.0
52101.0,STARLINK-3703,PAYLOAD,2023-06-29 09:28:15,15.08837042,0.0001063,53.2163,187.8042,81.6202,278.4911,4.2482e-05,3.88e-06,0.0,0 STARLINK-3703,1 52101U 22029P   23180.39462145  .00000388  00000-0  42482-4 0  9995,2 52101  53.2163 187.8042 0001063  81.6202 278.4911 15.08837042 72054,6917.889,95.438,540.49,539.019,0.0
52101.0,STARLINK-3703,PAYLOAD,2023-07-01 01:12:54,15.08833285,0.0001045,53.2163,180.37,81.2945,278.8165,-1.408e-05,-5.12e-06,0.0,0 STARLINK-3703,1 52101U 22029P   23182.05062748 -.00000512  00000-0 -14080-4 0  9999,2 52101  53.2163 180.3700 0001045  81.2945 278.8165 15.08833285 72301,6917.901,95.438,540.489,539.043,0.0
52101.0,STARLINK-3703,PAYLOAD,2023-07-02 09:00:36,15.08839227,0.0001133,53.2165,174.4231,78.1258,281.9862,3.1101e-05,2.07e-06,0.0,0 STARLINK-3703,1 52101U 22029P   23183.37542514  .00000207  00000-0  31101-4 0  9991,2 52101  53.2165 174.4231 0001133  78.1258 281.9862 15.08839227 72509,6917.883,95.438,540.532,538.964,0.0
52101.0,STARLINK-3703,PAYLOAD,2023-07-03 08:51:23,15.08844213,0.0001142,53.2167,169.9627,76.7769,283.3351,0.00011776,1.587e-05,0.0,0 STARLINK-3703,1 52101U 22029P   23184.36901867  .00001587  00000-0  11776-3 0  9998,2 52101  53.2167 169.9627 0001142  76.7769 283.3351 15.08844213 72656,6917.868,95.437,540.523,538.942,0.0
52101.0,STARLINK-3703,PAYLOAD,2023-07-04 02:20:38,15.08838748,0.0001158,53.2166,166.6911,79.2815,280.8307,1.6318e-05,-2.8e-07,0.0,0 STARLINK-3703,1 52101U 22029P   23185.09766471 -.00000028  00000-0  16318-4 0  9997,2 52101  53.2166 166.6911 0001158  79.2815 280.8307 15.08838748 72763,6917.884,95.438,540.55,538.948,0.0
52101.0,STARLINK-3703,PAYLOAD,2023-07-05 05:22:11,15.08843791,0.0001193,53.2168,161.636,79.5556,280.5571,-4.346e-07,-2.95e-06,0.0,0 STARLINK-3703,1 52101U 22029P   23186.22374150 -.00000295  00000-0 -43460-6 0  9999,2 52101  53.2168 161.6360 0001193  79.5556 280.5571 15.08843791 72935,6917.869,95.437,540.559,538.908,0.0
52101.0,STARLINK-3703,PAYLOAD,2023-07-05 14:54:30,15.08837641,0.00012,53.2169,159.8517,76.4835,283.6291,-1.724e-05,-5.62e-06,0.0,0 STARLINK-3703,1 52101U 22029P   23186.62118579 -.00000562  00000-0 -17240-4 0  9996,2 52101  53.2169 159.8517 0001200  76.4835 283.6291 15.08837641 72990,6917.888,95.438,540.583,538.922,0.0
52101.0,STARLINK-3703,PAYLOAD,2023-07-06 22:42:13,15.08836914,0.0001161,53.2168,153.9057,83.7546,276.3578,1.1484e-05,-1.05e-06,0.0,0 STARLINK-3703,1 52101U 22029P   23187.94598919 -.00000105  00000-0  11484-4 0  9998,2 52101  53.2168 153.9057 0001161  83.7546 276.3578 15.08836914 73191,6917.89,95.438,540.558,538.952,0.0
52101.0,STARLINK-3703,PAYLOAD,2023-07-08 06:29:55,15.08843368,0.0001139,53.2168,147.958,90.8876,269.2247,8.8673e-05,1.124e-05,0.0,0 STARLINK-3703,1 52101U 22029P   23189.27078426  .00001124  00000-0  88673-4 0  9997,2 52101  53.2168 147.9580 0001139  90.8876 269.2247 15.08843368 73392,6917.87,95.437,540.523,538.947,0.0
52101.0,STARLINK-3703,PAYLOAD,2023-07-08 14:26:52,15.08837421,0.0001189,53.2167,146.4704,84.6501,275.4627,1.5803e-05,-3.6e-07,0.0,0 STARLINK-3703,1 52101U 22029P   23189.60199081 -.00000036  00000-0  15803-4 0  9992,2 52101  53.2167 146.4704 0001189  84.6501 275.4627 15.08837421 73444,6917.888,95.438,540.576,538.931,0.0
52101.0,STARLINK-3703,PAYLOAD,2023-07-10 03:00:44,15.08838883,0.0001266,53.2169,139.6315,87.5028,272.6109,2.6229e-05,1.3e-06,0.0,0 STARLINK-3703,1 52101U 22029P   23191.12551320  .00000130  00000-0  26229-4 0  9998,2 52101  53.2169 139.6315 0001266  87.5028 272.6109 15.08838883 73672,6917.884,95.438,540.625,538.873,0.0
52101.0,STARLINK-3703,PAYLOAD,2023-07-11 06:02:16,15.08847068,0.0001293,53.2174,134.5761,90.9436,269.1704,0.00013206,1.815e-05,0.0,0 STARLINK-3703,1 52101U 22029P   23192.25158360  .00001815  00000-0  13206-3 0  9991,2 52101  53.2174 134.5761 0001293  90.9436 269.1704 15.08847068 73844,6917.859,95.437,540.618,538.829,0.0
52101.0,STARLINK-3703,PAYLOAD,2023-07-12 04:17:41,15.08842098,0.0001246,53.2176,130.4136,93.0718,267.0417,3.2352e-05,2.27e-06,0.0,0 STARLINK-3703,1 52101U 22029P   23193.17895057  .00000227  00000-0  32352-4 0  9994,2 52101  53.2176 130.4136 0001246  93.0718 267.0417 15.08842098 73983,6917.874,95.437,540.601,538.877,0.0
52101.0,STARLINK-3703,PAYLOAD,2023-07-13 05:43:51,15.08845542,0.0001186,53.217,125.6565,100.23,259.8826,3.0264e-05,1.94e-06,0.0,0 STARLINK-3703,1 52101U 22029P   23194.23878821  .00000194  00000-0  30264-4 0  9995,2 52101  53.2170 125.6565 0001186 100.2300 259.8826 15.08845542 74149,6917.863,95.437,540.549,538.908,0.0
52101.0,STARLINK-3703,PAYLOAD,2023-07-13 21:37:43,15.08829783,0.0001132,53.2167,122.6842,102.3102,257.8017,-2.5952e-05,-7.01e-06,0.0,0 STARLINK-3703,1 52101U 22029P   23194.90120212 -.00000701  00000-0 -25952-4 0  9997,2 52101  53.2167 122.6842 0001132 102.3102 257.8017 15.08829783 74244,6917.912,95.438,540.56,538.994,0.0
52101.0,STARLINK-3703,PAYLOAD,2023-07-14 18:17:44,15.08836401,0.0001009,53.2177,118.8173,92.6138,267.497,6.8137e-05,7.97e-06,0.0,0 STARLINK-3703,1 52101U 22029P   23195.76231772  .00000797  00000-0  68137-4 0  9991,2 52101  53.2177 118.8173 0001009  92.6138 267.4970 15.08836401 74376,6917.891,95.438,540.454,539.058,0.0
52101.0,STARLINK-3703,PAYLOAD,2023-07-15 00:39:16,15.08849609,0.0001257,53.2181,117.6281,38.5911,321.5171,0.00010672,1.411e-05,0.0,0 STARLINK-3703,1 52101U 22029P   23196.02726942  .00001411  00000-0  10672-3 0  9993,2 52101  53.2181 117.6281 0001257  38.5911 321.5171 15.08849609 74415,6917.851,95.437,540.586,538.846,0.0
52101.0,STARLINK-3703,PAYLOAD,2023-07-15 03:50:01,15.08860618,9.8e-05,53.2177,117.0331,101.6672,258.4431,0.00016553,2.349e-05,0.0,0 STARLINK-3703,1 52101U 22029P   23196.15973848  .00002349  00000-0  16553-3 0  9991,2 52101  53.2177 117.0331 0000980 101.6672 258.4431 15.08860618 74430,6917.817,95.436,540.36,539.004,0.0
52101.0,STARLINK-3703,PAYLOAD,2023-07-15 18:08:31,15.08834787,0.0001166,53.2177,114.3575,92.7091,267.4034,0.0001077,1.426e-05,0.0,0 STARLINK-3703,1 52101U 22029P   23196.75591809  .00001426  00000-0  10770-3 0  9990,2 52101  53.2177 114.3575 0001166  92.7091 267.4034 15.08834787 74529,6917.896,95.438,540.568,538.955,0.0
52101.0,STARLINK-3703,PAYLOAD,2023-07-17 00:20:50,15.0884577,8.75e-05,53.217,108.7073,84.7034,275.4058,-6.3649e-06,-3.89e-06,0.0,0 STARLINK-3703,1 52101U 22029P   23198.01447759 -.00000389  00000-0 -63649-5 0  9999,2 52101  53.2170 108.7073 0000875  84.7034 275.4058 15.08845770 74716,6917.863,95.437,540.333,539.122,0.0
